[{"OBJECT_NAME":"STARLINK-1882","OBJECT_ID":"2020-074AX","EPOCH":"2026-03-10T00:00:02.999808","MEAN_MOTION":15.62047673,"ECCENTRICITY":0.00063164,"INCLINATION":53.053,"RA_OF_ASC_NODE":273.3369,"ARG_OF_PERICENTER":138.0359,"MEAN_ANOMALY":141.9352,"EPHEMERIS_TYPE":0,"CLASSIFICATION_TYPE":"U","NORAD_CAT_ID":46784,"ELEMENT_SET_NO":999,"REV_AT_EPOCH":577,"BSTAR":0.0024889252,"MEAN_MOTION_DOT":0.00227653,"MEAN_MOTION_DDOT":0},{"OBJECT_NAME":"OBJECT DM","OBJECT_ID":"2025-009DM","EPOCH":"2026-03-09T18:02:25.223712","MEAN_MOTION":15.64307433,"ECCENTRICITY":0.00035565,"INCLINATION":97.4062,"RA_OF_ASC_NODE":158.7126,"ARG_OF_PERICENTER":233.4448,"MEAN_ANOMALY":126.6484,"EPHEMERIS_TYPE":0,"CLASSIFICATION_TYPE":"U","NORAD_CAT_ID":63002,"ELEMENT_SET_NO":999,"REV_AT_EPOCH":12182,"BSTAR":0.0018891728,"MEAN_MOTION_DOT":0.00183902,"MEAN_MOTION_DDOT":0}]
